GLOBALSTAR M023         
1 25621U 99004A   25228.78680905 -.00000077  00000+0  14943-3 0  9998
2 25621  52.0081 228.9144 0010047 260.3703 271.0177 12.62502130223382
GLOBALSTAR M040         
1 25622U 99004B   25228.78571043 -.00000069  00000+0  19328-3 0  9994
2 25622  51.9892 233.1631 0000883 160.2499  10.8469 12.62015130222906
GLOBALSTAR M036         
1 25623U 99004C   25228.84924668 -.00000065  00000+0  26353-3 0  9999
2 25623  51.9967  80.4281 0010915 163.0348 210.3437 11.86606387186181
GLOBALSTAR M038         
1 25624U 99004D   25228.86131222 -.00000068  00000+0  21974-3 0  9995
2 25624  51.9953 256.8394 0001986 177.5617 353.7242 12.32530643209857
GLOBALSTAR M022         
1 25649U 99012A   25228.10827222 -.00000098  00000+0 -13200-3 0  9997
2 25649  52.0036 128.0088 0002360 307.0710 200.5202 12.02502447183583
GLOBALSTAR M041         
1 25650U 99012B   25228.69146826 -.00000050  00000+0  45967-3 0  9999
2 25650  52.0046   9.7196 0002275  83.5678 276.5418 11.96681820185528
GLOBALSTAR M046         
1 25651U 99012C   25228.83075852 -.00000208  00000+0 -13190-2 0  9994
2 25651  52.0052  73.9644 0002631  31.4681 341.2971 12.09411606191001
GLOBALSTAR M037         
1 25652U 99012D   25228.84577113 -.00000077  00000+0  14907-3 0  9994
2 25652  52.0032 359.3317 0001505 342.8405 180.8864 12.62449674218935
